{
    "links": {
        "self": "http://www.neowsapp.com/rest/v1/neo/54057200?api_key=iIulBulltgU6a56xZRHN4H3l9WmuAYTsLGpBGhQ2"
    },
    "id": "54057200",
    "neo_reference_id": "54057200",
    "name": "(2020 TX3)",
    "designation": "2020 TX3",
    "nasa_jpl_url": "http://ssd.jpl.nasa.gov/sbdb.cgi?sstr=54057200",
    "absolute_magnitude_h": 25.687,
    "estimated_diameter": {
        "kilometers": {
            "estimated_diameter_min": 0.0193711309,
            "estimated_diameter_max": 0.0433151656
        },
        "meters": {
            "estimated_diameter_min": 19.3711309328,
            "estimated_diameter_max": 43.3151655668
        },
        "miles": {
            "estimated_diameter_min": 0.012036659,
            "estimated_diameter_max": 0.0269147877
        },
        "feet": {
            "estimated_diameter_min": 63.5535812096,
            "estimated_diameter_max": 142.1101277983
        }
    },
    "is_potentially_hazardous_asteroid": false,
    "close_approach_data": [
        {
            "close_approach_date": "2017-09-21",
            "close_approach_date_full": "2017-Sep-21 08:50",
            "epoch_date_close_approach": 1505983800000,
            "relative_velocity": {
                "kilometers_per_second": "19.0675680299",
                "kilometers_per_hour": "68643.2449077394",
                "miles_per_hour": "42652.242926145"
            },
            "miss_distance": {
                "astronomical": "0.466867156",
                "lunar": "181.611323684",
                "kilometers": "69842332.11055772",
                "miles": "43398012.780907736"
            },
            "orbiting_body": "Earth"
        },
        {
            "close_approach_date": "2020-10-30",
            "close_approach_date_full": "2020-Oct-30 07:33",
            "epoch_date_close_approach": 1604043180000,
            "relative_velocity": {
                "kilometers_per_second": "7.5635826429",
                "kilometers_per_hour": "27228.8975142621",
                "miles_per_hour": "16918.9780137924"
            },
            "miss_distance": {
                "astronomical": "0.0783964712",
                "lunar": "30.4962272968",
                "kilometers": "11727945.107036344",
                "miles": "7287407.1679517872"
            },
            "orbiting_body": "Earth"
        },
        {
            "close_approach_date": "2023-12-17",
            "close_approach_date_full": "2023-Dec-17 20:25",
            "epoch_date_close_approach": 1702844700000,
            "relative_velocity": {
                "kilometers_per_second": "18.4565803927",
                "kilometers_per_hour": "66443.6894137142",
                "miles_per_hour": "41285.5246804271"
            },
            "miss_distance": {
                "astronomical": "0.4870146245",
                "lunar": "189.4486889305",
                "kilometers": "72856350.484049815",
                "miles": "45270836.954184847"
            },
            "orbiting_body": "Earth"
        }
    ],
    "orbital_data": {
        "orbit_id": "4",
        "orbit_determination_date": "2020-11-08 05:44:55",
        "first_observation_date": "2020-10-10",
        "last_observation_date": "2020-11-07",
        "data_arc_in_days": 28,
        "observations_used": 25,
        "orbit_uncertainty": "7",
        "minimum_orbit_intersection": ".0781265",
        "jupiter_tisserand_invariant": "3.551",
        "epoch_osculation": "2459000.5",
        "eccentricity": ".4978412543347165",
        "semi_major_axis": "2.114906282527279",
        "inclination": "9.524660446336293",
        "ascending_node_longitude": "28.4160999424566",
        "orbital_period": "1123.401806343626",
        "perihelion_distance": "1.062018686033526",
        "perihelion_argument": "17.65501749115483",
        "aphelion_distance": "3.167793879021032",
        "perihelion_time": "2459161.433705881653",
        "mean_anomaly": "308.4279500084107",
        "mean_motion": ".320455244033926",
        "equinox": "J2000",
        "orbit_class": {
            "orbit_class_type": "AMO",
            "orbit_class_description": "Near-Earth asteroid orbits similar to that of 1221 Amor",
            "orbit_class_range": "1.017 AU < q (perihelion) < 1.3 AU"
        }
    },
    "is_sentry_object": false
}